GSAT0101 (GALILEO-PFM)  
1 37846U 11060A   24274.72193711 -.00000105  00000+0  00000+0 0  9991
2 37846  57.1248 358.6828 0000392 320.2939  39.7416  1.70475983 80472
GSAT0102 (GALILEO-FM2)  
1 37847U 11060B   24270.50971667 -.00000114  00000+0  00000+0 0  9998
2 37847  57.1258 358.7967 0002019 302.5392  37.8638  1.70475265 80404
GSAT0103 (GALILEO-FM3)  
1 38857U 12055A   24273.00169249  .00000038  00000+0  00000+0 0  9992
2 38857  55.4550 118.7506 0002029 267.9998  92.0736  1.70473742 74337
GSAT0201 (GALILEO 5)    
1 40128U 14050A   24275.26867988 -.00000052  00000+0  00000+0 0  9995
2 40128  49.5504 298.7934 1613797 155.4033 213.2502  1.85519660 66740
GSAT0202 (GALILEO 6)    
1 40129U 14050B   24274.98759183 -.00000050  00000+0  00000+0 0  9999
2 40129  49.5672 297.8830 1612959 156.1875 212.2088  1.85520359 68908
GSAT0203 (GALILEO 7)    
1 40544U 15017A   24271.56799758 -.00000114  00000+0  00000+0 0  9998
2 40544  56.9199 358.6880 0004502 242.4106 117.5739  1.70476414 58501
GSAT0204 (GALILEO 8)    
1 40545U 15017B   24274.16881997 -.00000107  00000+0  00000+0 0  9997
2 40545  56.9260 358.6332 0004758 228.6884 131.3072  1.70475969 21592
GSAT0205 (GALILEO 9)    
1 40889U 15045A   24275.11006224 -.00000010  00000+0  00000+0 0  9990
2 40889  55.1744 238.8430 0003893  13.9381 346.0262  1.70473185 56373
GSAT0206 (GALILEO 10)   
1 40890U 15045B   24274.74412491 -.00000011  00000+0  00000+0 0  9998
2 40890  55.1742 238.8485 0002265 347.4915  12.4571  1.70473227 56399
GSAT0209 (GALILEO 12)   
1 41174U 15079A   24274.32752016  .00000045  00000+0  00000+0 0  9991
2 41174  55.4711 118.4244 0002560 354.1647   5.9320  1.70474247 54126
GSAT0208 (GALILEO 11)   
1 41175U 15079B   24274.54735315  .00000046  00000+0  00000+0 0  9990
2 41175  55.4712 118.4160 0002030   6.7076 353.3951  1.70474075 54706
GSAT0211 (GALILEO 14)   
1 41549U 16030A   24274.66983298 -.00000011  00000+0  00000+0 0  9994
2 41549  55.3229 238.8729 0003495 323.4902  36.4405  1.70473247 52020
GSAT0210 (GALILEO 13)   
1 41550U 16030B   24274.34137321 -.00000011  00000+0  00000+0 0  9999
2 41550  55.3229 238.8804 0003557 245.6843 114.2340  1.70473597 52014
GSAT0207 (GALILEO 15)   
1 41859U 16069A   24272.86132546  .00000036  00000+0  00000+0 0  9998
2 41859  55.1360 118.4409 0002206 327.0441  33.0380  1.70474140 48723
GSAT0212 (GALILEO 16)   
1 41860U 16069B   24275.06184958  .00000047  00000+0  00000+0 0  9991
2 41860  55.1347 118.3760 0002333  29.9023 330.2111  1.70474311 49011
GSAT0213 (GALILEO 17)   
1 41861U 16069C   24274.25707911  .00000044  00000+0  00000+0 0  9999
2 41861  55.1375 118.4053 0001861 283.9374  76.1414  1.70474697 48866
GSAT0214 (GALILEO 18)   
1 41862U 16069D   24274.98899936  .00000047  00000+0  00000+0 0  9992
2 41862  55.1358 118.3785 0000956 296.9569  63.1334  1.70474414 49004
GSAT0215 (GALILEO 19)   
1 43055U 17079A   24273.13185362 -.00000011  00000+0  00000+0 0  9999
2 43055  55.3004 238.7357 0003061 274.8178  85.1069  1.70473933 42314
GSAT0216 (GALILEO 20)   
1 43056U 17079B   24274.01005268 -.00000012  00000+0  00000+0 0  9995
2 43056  55.3003 238.7114 0004512 280.7619  79.1436  1.70474074 42344
GSAT0217 (GALILEO 21)   
1 43057U 17079C   24274.81714360 -.00000011  00000+0  00000+0 0  9993
2 43057  55.2980 238.6879 0003915 294.8915  65.0218  1.70474022 42341
GSAT0218 (GALILEO 22)   
1 43058U 17079D   24273.27745772 -.00000011  00000+0  00000+0 0  9994
2 43058  55.2993 238.7277 0004978 277.1795  82.7229  1.70474011 42345
GSAT0221 (GALILEO 25)   
1 43564U 18060A   24270.83236720 -.00000114  00000+0  00000+0 0  9998
2 43564  57.3002 358.7341 0004377 260.9667  99.0135  1.70476258 38456
GSAT0222 (GALILEO 26)   
1 43565U 18060B   24274.57055208 -.00000106  00000+0  00000+0 0  9995
2 43565  57.3036 358.6355 0004610 232.0634 127.9329  1.70476087 38560
GSAT0219 (GALILEO 23)   
1 43566U 18060C   24274.20568818 -.00000107  00000+0  00000+0 0  9993
2 43566  57.3026 358.6472 0003389 262.4926  97.5056  1.70476377 38531
GSAT0220 (GALILEO 24)   
1 43567U 18060D   24272.08004698 -.00000113  00000+0  00000+0 0  9996
2 43567  57.3026 358.7042 0003826 260.5120  99.4758  1.70476239 38488
GSAT0223 (GALILEO 27)   
1 49809U 21116A   24273.09424559 -.00000110  00000+0  00000+0 0  9998
2 49809  57.2929 358.5706 0003870 208.8765 144.0495  1.70476495 17507
GSAT0224 (GALILEO 28)   
1 49810U 21116B   24274.12668586 -.00000107  00000+0  00000+0 0  9991
2 49810  57.2936 358.5413 0003145 205.7878 173.2910  1.70476581 17555
GSAT0225 (GALILEO 29)   
1 59598U 24079A   24273.81964705  .00000041  00000+0  00000+0 0  9999
2 59598  54.7524 118.5799 0002190 158.2111  23.2570  1.70474549  2659
GSAT0227 (GALILEO 30)   
1 59600U 24079C   24272.53427261  .00000033  00000+0  00000+0 0  9993
2 59600  54.7470 118.6166 0003505 108.4260 251.7068  1.70474438  2685
